O3B MPOWER F1           
1 54755U 22174A   23274.80503316 -.00000025  00000+0  00000+0 0  9992
2 54755   0.0484  17.8813 0004967 187.6239  11.6460  5.00118365 15861
